ONEWEB-0158             
1 48054U 21025N   25296.67306323 -.00000075  00000+0 -23907-3 0  9992
2 48054  87.9046   7.2103 0001745 110.5088 249.6228 13.13470053222589
ONEWEB-0157             
1 48055U 21025P   25296.46992698 -.00000195  00000+0 -56975-3 0  9990
2 48055  87.9041   7.2571 0002196  94.7447 265.3933 13.13470429222492
ONEWEB-0162             
1 48056U 21025Q   25296.67462132 -.00000108  00000+0 -33086-3 0  9991
2 48056  87.9046   7.2173 0001846  98.9146 261.2192 13.13469856222493
ONEWEB-0155             
1 48057U 21025R   25296.45298115 -.00000114  00000+0 -34594-3 0  9998
2 48057  87.9046   7.2674 0002017 102.3453 257.7902 13.13467836222600
ONEWEB-0149             
1 48058U 21025S   25296.24646546 -.00000011  00000+0 -65426-4 0  9996
2 48058  87.9041   7.3023 0001765  93.8791 266.2540 13.13471293222383
ONEWEB-0148             
1 48059U 21025T   25296.66629316  .00000148  00000+0  37017-3 0  9992
2 48059  87.9036   7.2421 0001807  80.3166 279.8168 13.13468717222566
ONEWEB-0160             
1 48060U 21025U   25296.22614352 -.00000220  00000+0 -63725-3 0  9998
2 48060  87.9040   7.3266 0001339 123.9797 236.1460 13.13470880222458
ONEWEB-0163             
1 48061U 21025V   25296.66797997  .00000102  00000+0  24508-3 0  9997
2 48061  87.9043   7.2217 0002115  97.0910 263.0459 13.13467669222636
